H1 CPF  1  DLR 2021 02 20 10  5512 technosat            
H2  1704205 6203    42829 2021 02 20 00 00 00 2021 02 27 00 00 00    60 1 1  0 0 0
H9
10 0 59269      0.000000  0      -2293303.816       3229918.602       5734187.120
10 0 59269     60.000000  0      -1980072.241       2995457.033       5971924.700
10 0 59269    120.000000  0      -1660634.025       2745631.569       6184368.088
10 0 59269    180.000000  0      -1336461.708       2481443.786       6370615.245
10 0 59269    240.000000  0      -1009038.740       2203968.549       6529874.360
10 0 59269    300.000000  0       -679852.788       1914349.690       6661467.140
10 0 59269    360.000000  0       -350388.973       1613795.262       6764831.727
10 0 59269    420.000000  0        -22123.149       1303572.473       6839525.016
10 0 59269    480.000000  0        303484.710        985002.365       6885224.506
10 0 59269    540.000000  0        624996.991        659454.230       6901729.691
10 0 59269    600.000000  0        941004.773        328339.777       6888962.984
10 0 59269    660.000000  0       1250134.013         -6892.951       6846970.195
10 0 59269    720.000000  0       1551051.553       -344765.883       6775920.525
10 0 59269    780.000000  0       1842470.934       -683777.483       6676106.024
10 0 59269    840.000000  0       2123157.929      -1022409.389       6547940.518
10 0 59269    900.000000  0       2391935.877      -1359133.190       6391958.163
10 0 59269    960.000000  0       2647690.778      -1692417.390       6208811.479
10 0 59269   1020.000000  0       2889376.086      -2020734.476       5999268.814
10 0 59269   1080.000000  0       3116017.143      -2342567.992       5764211.294
10 0 59269   1140.000000  0       3326715.284      -2656419.632       5504629.353
10 0 59269   1200.000000  0       3520651.614      -2960816.377       5221618.791
10 0 59269   1260.000000  0       3697090.393      -3254317.590       4916376.299
10 0 59269   1320.000000  0       3855382.029      -3535522.007       4590194.540
10 0 59269   1380.000000  0       3994965.698      -3803074.654       4244456.774
10 0 59269   1440.000000  0       4115371.477      -4055673.610       3880631.009
10 0 59269   1500.000000  0       4216222.035      -4292076.559       3500263.778
10 0 59269   1560.000000  0       4297233.911      -4511107.146       3104973.526
10 0 59269   1620.000000  0       4358218.311      -4711661.042       2696443.578
10 0 59269   1680.000000  0       4399081.416      -4892711.693       2276414.785
10 0 59269   1740.000000  0       4419824.200      -5053315.702       1846677.894
10 0 59269   1800.000000  0       4420541.772      -5192617.864       1409065.644
10 0 59269   1860.000000  0       4401422.220      -5309855.775        965444.624
10 0 59269   1920.000000  0       4362744.940      -5404363.929        517706.981
10 0 59269   1980.000000  0       4304878.594      -5475577.357         67762.090
10 0 59269   2040.000000  0       4228278.661      -5523034.890       -382471.925
10 0 59269   2100.000000  0       4133484.476      -5546381.875       -831076.812
10 0 59269   2160.000000  0       4021115.792      -5545372.251      -1276142.763
10 0 59269   2220.000000  0       3891868.980      -5519870.089      -1715776.822
10 0 59269   2280.000000  0       3746512.908      -5469850.611      -2148111.194
10 0 59269   2340.000000  0       3585884.498      -5395400.676      -2571311.449
10 0 59269   2400.000000  0       3410883.940      -5296718.657      -2983584.545
10 0 59269   2460.000000  0       3222469.625      -5174113.769      -3383186.550
10 0 59269   2520.000000  0       3021652.834      -5028004.885      -3768430.086
10 0 59269   2580.000000  0       2809492.216      -4858918.828      -4137691.457
10 0 59269   2640.000000  0       2587088.118      -4667488.131      -4489417.439
10 0 59269   2700.000000  0       2355576.782      -4454448.287      -4822131.671
10 0 59269   2760.000000  0       2116124.481      -4220634.512      -5134440.611
10 0 59269   2820.000000  0       1869921.630      -3966978.117      -5425039.064
10 0 59269   2880.000000  0       1618176.851      -3694502.505      -5692715.323
10 0 59269   2940.000000  0       1362111.030      -3404318.763      -5936355.877
10 0 59269   3000.000000  0       1102951.409      -3097620.907      -6154949.683
10 0 59269   3060.000000  0        841925.720      -2775680.758      -6347592.014
10 0 59269   3120.000000  0        580256.414      -2439842.476      -6513487.803
10 0 59269   3180.000000  0        319155.031      -2091516.805      -6651954.526
10 0 59269   3240.000000  0         59816.711      -1732175.076      -6762424.616
10 0 59269   3300.000000  0       -196585.120      -1363342.969      -6844447.439
10 0 59269   3360.000000  0       -448903.881       -986594.061      -6897690.818
10 0 59269   3420.000000  0       -696024.798       -603543.202      -6921942.117
10 0 59269   3480.000000  0       -936869.698       -215839.720      -6917108.875
10 0 59269   3540.000000  0      -1170401.577        174839.512      -6883218.966
10 0 59269   3600.000000  0      -1395628.922        566797.109      -6820420.371
10 0 59269   3660.000000  0      -1611609.780        958322.376      -6728980.533
10 0 59269   3720.000000  0      -1817455.541       1347698.607      -6609285.212
10 0 59269   3780.000000  0      -2012334.462       1733210.340      -6461836.929
10 0 59269   3840.000000  0      -2195474.954       2113150.686      -6287253.106
10 0 59269   3900.000000  0      -2366168.628       2485828.785      -6086263.717
10 0 59269   3960.000000  0      -2523772.963       2849577.205      -5859708.427
10 0 59269   4020.000000  0      -2667713.680       3202759.266      -5608533.394
10 0 59269   4080.000000  0      -2797486.857       3543776.366      -5333787.664
10 0 59269   4140.000000  0      -2912660.721       3871075.222      -5036619.085
10 0 59269   4200.000000  0      -3012877.094       4183154.982      -4718269.795
10 0 59269   4260.000000  0      -3097852.478       4478574.157      -4380071.285
10 0 59269   4320.000000  0      -3167378.788       4755957.357      -4023439.070
10 0 59269   4380.000000  0      -3221323.689       5014001.753      -3649866.975
10 0 59269   4440.000000  0      -3259630.598       5251483.247      -3260921.179
10 0 59269   4500.000000  0      -3282318.390       5467262.487      -2858233.922
10 0 59269   4560.000000  0      -3289480.744       5660290.531      -2443496.812
10 0 59269   4620.000000  0      -3281285.100       5829614.169      -2018453.836
10 0 59269   4680.000000  0      -3257971.230       5974380.848      -1584894.047
10 0 59269   4740.000000  0      -3219849.414       6093843.108      -1144644.010
10 0 59269   4800.000000  0      -3167298.319       6187362.472       -699560.102
10 0 59269   4860.000000  0      -3100762.625       6254412.964       -251520.773
10 0 59269   4920.000000  0      -3020750.351       6294584.265        197581.513
10 0 59269   4980.000000  0      -2927829.778       6307584.207        645848.517
10 0 59269   5040.000000  0      -2822626.039       6293240.674       1091384.489
10 0 59269   5100.000000  0      -2705817.380       6251502.877       1532304.412
10 0 59269   5160.000000  0      -2578131.202       6182442.032       1966742.133
10 0 59269   5220.000000  0      -2440339.925       6086251.481       2392858.413
10 0 59269   5280.000000  0      -2293256.626       5963246.221       2808848.839
10 0 59269   5340.000000  0      -2137730.535       5813861.894       3212951.547
10 0 59269   5400.000000  0      -1974642.381       5638653.218       3603454.769
10 0 59269   5460.000000  0      -1804899.623       5438291.846       3978704.176
10 0 59269   5520.000000  0      -1629431.589       5213563.669       4337109.912
10 0 59269   5580.000000  0      -1449184.551       4965365.624       4677153.387
10 0 59269   5640.000000  0      -1265116.679       4694701.924       4997393.732
10 0 59269   5700.000000  0      -1078193.020       4402679.823       5296473.804
10 0 59269   5760.000000  0       -889380.580       4090504.955       5573125.844
10 0 59269   5820.000000  0       -699643.446       3759476.242       5826176.801
10 0 59269   5880.000000  0       -509937.931       3410980.319       6054553.256
10 0 59269   5940.000000  0       -321207.809       3046485.562       6257285.814
10 0 59269   6000.000000  0       -134379.704       2667535.862       6433513.074
10 0 59269   6060.000000  0         49641.386       2275744.065       6582485.216
10 0 59269   6120.000000  0        229976.456       1872785.059       6703567.168
10 0 59269   6180.000000  0        405776.672       1460388.531       6796241.230
10 0 59269   6240.000000  0        576227.333       1040331.535       6860109.191
10 0 59269   6300.000000  0        740551.628        614430.886       6894893.991
10 0 59269   6360.000000  0        898014.188        184535.385       6900440.979
10 0 59269   6420.000000  0       1047924.382       -247482.181       6876718.728
10 0 59269   6480.000000  0       1189639.379       -679733.235       6823819.334
10 0 59269   6540.000000  0       1322566.963      -1110321.701       6741958.135
10 0 59269   6600.000000  0       1446168.058      -1537352.280       6631472.993
10 0 59269   6660.000000  0       1559958.978      -1958938.867       6492823.147
10 0 59269   6720.000000  0       1663513.385      -2373212.994       6326587.487
10 0 59269   6780.000000  0       1756463.958      -2778332.218       6133462.343
10 0 59269   6840.000000  0       1838503.728      -3172488.500       5914258.792
10 0 59269   6900.000000  0       1909387.111      -3553916.455       5669899.425
10 0 59269   6960.000000  0       1968930.607      -3920901.446       5401414.630
10 0 59269   7020.000000  0       2017013.188      -4271787.483       5109938.431
10 0 59269   7080.000000  0       2053576.382      -4604984.946       4796703.914
10 0 59269   7140.000000  0       2078624.066      -4918978.146       4463038.203
99
